{
 "generated_at": "2026-07-01T08:50:10Z",
 "sources": [
  {
   "name": "CelesTrak",
   "url": "https://celestrak.org/NORAD/elements/",
   "license": "frei verfügbar; Attribution. Ursprünglich USSPACECOM/Space-Track."
  },
  {
   "name": "GCAT (J. McDowell, planet4589.org)",
   "url": "https://planet4589.org/space/gcat/",
   "license": "CC-BY 4.0"
  }
 ],
 "satellites": [
  {
   "norad": 41884,
   "name": "CYGFM05",
   "intl": "2016-078A",
   "group": "weather",
   "gcat": {
    "class": "C",
    "category": "EOSCI",
    "owner": "LARCN/SWRIB",
    "state": "US"
   },
   "omm": {
    "OBJECT_NAME": "CYGFM05",
    "OBJECT_ID": "2016-078A",
    "EPOCH": "2026-06-30T23:09:42.628608",
    "MEAN_MOTION": 15.5724685,
    "ECCENTRICITY": 0.00081949,
    "INCLINATION": 34.9549,
    "RA_OF_ASC_NODE": 169.3132,
    "ARG_OF_PERICENTER": 271.7967,
    "MEAN_ANOMALY": 88.1818,
    "EPHEMERIS_TYPE": 0,
    "CLASSIFICATION_TYPE": "U",
    "NORAD_CAT_ID": 41884,
    "ELEMENT_SET_NO": 999,
    "REV_AT_EPOCH": 53090,
    "BSTAR": 0.00037901171,
    "MEAN_MOTION_DOT": 0.00028635,
    "MEAN_MOTION_DDOT": 0
   }
  },
  {
   "norad": 41890,
   "name": "CYGFM07",
   "intl": "2016-078G",
   "group": "weather",
   "gcat": {
    "class": "C",
    "category": "EOSCI",
    "owner": "LARCN/SWRIB",
    "state": "US"
   },
   "omm": {
    "OBJECT_NAME": "CYGFM07",
    "OBJECT_ID": "2016-078G",
    "EPOCH": "2026-06-30T23:15:59.734368",
    "MEAN_MOTION": 15.60817229,
    "ECCENTRICITY": 0.00071803,
    "INCLINATION": 34.9435,
    "RA_OF_ASC_NODE": 137.7668,
    "ARG_OF_PERICENTER": 307.1458,
    "MEAN_ANOMALY": 52.8611,
    "EPHEMERIS_TYPE": 0,
    "CLASSIFICATION_TYPE": "U",
    "NORAD_CAT_ID": 41890,
    "ELEMENT_SET_NO": 999,
    "REV_AT_EPOCH": 53115,
    "BSTAR": 0.00039047411,
    "MEAN_MOTION_DOT": 0.00033815,
    "MEAN_MOTION_DDOT": 0
   }
  },
  {
   "norad": 41888,
   "name": "CYGFM08",
   "intl": "2016-078E",
   "group": "weather",
   "gcat": {
    "class": "C",
    "category": "EOSCI",
    "owner": "LARCN/SWRIB",
    "state": "US"
   },
   "omm": {
    "OBJECT_NAME": "CYGFM08",
    "OBJECT_ID": "2016-078E",
    "EPOCH": "2026-06-30T22:43:57.675648",
    "MEAN_MOTION": 15.60711956,
    "ECCENTRICITY": 0.00088679,
    "INCLINATION": 34.9416,
    "RA_OF_ASC_NODE": 149.586,
    "ARG_OF_PERICENTER": 295.1528,
    "MEAN_ANOMALY": 64.8277,
    "EPHEMERIS_TYPE": 0,
    "CLASSIFICATION_TYPE": "U",
    "NORAD_CAT_ID": 41888,
    "ELEMENT_SET_NO": 999,
    "REV_AT_EPOCH": 53112,
    "BSTAR": 0.00039512656,
    "MEAN_MOTION_DOT": 0.00034103,
    "MEAN_MOTION_DDOT": 0
   }
  },
  {
   "norad": 28054,
   "name": "DMSP 5D-3 F16 (USA 172)",
   "intl": "2003-048A",
   "group": "weather",
   "gcat": {
    "class": null,
    "category": null,
    "owner": null,
    "state": null
   },
   "omm": {
    "OBJECT_NAME": "DMSP 5D-3 F16 (USA 172)",
    "OBJECT_ID": "2003-048A",
    "EPOCH": "2026-06-30T23:14:05.109216",
    "MEAN_MOTION": 14.14484194,
    "ECCENTRICITY": 0.00081678,
    "INCLINATION": 98.9886,
    "RA_OF_ASC_NODE": 205.8873,
    "ARG_OF_PERICENTER": 106.0086,
    "MEAN_ANOMALY": 5.4646,
    "EPHEMERIS_TYPE": 0,
    "CLASSIFICATION_TYPE": "U",
    "NORAD_CAT_ID": 28054,
    "ELEMENT_SET_NO": 999,
    "REV_AT_EPOCH": 17143,
    "BSTAR": 0.000027699462,
    "MEAN_MOTION_DOT": 8e-8,
    "MEAN_MOTION_DDOT": 0
   }
  },
  {
   "norad": 29522,
   "name": "DMSP 5D-3 F17 (USA 191)",
   "intl": "2006-050A",
   "group": "weather",
   "gcat": {
    "class": "D",
    "category": "MET",
    "owner": "AFSMC",
    "state": "US"
   },
   "omm": {
    "OBJECT_NAME": "DMSP 5D-3 F17 (USA 191)",
    "OBJECT_ID": "2006-050A",
    "EPOCH": "2026-06-30T23:00:04.907232",
    "MEAN_MOTION": 14.14994764,
    "ECCENTRICITY": 0.00105842,
    "INCLINATION": 98.7379,
    "RA_OF_ASC_NODE": 188.2466,
    "ARG_OF_PERICENTER": 23.0403,
    "MEAN_ANOMALY": 337.1243,
    "EPHEMERIS_TYPE": 0,
    "CLASSIFICATION_TYPE": "U",
    "NORAD_CAT_ID": 29522,
    "ELEMENT_SET_NO": 999,
    "REV_AT_EPOCH": 1437,
    "BSTAR": 0.000033535645,
    "MEAN_MOTION_DOT": 2.2e-7,
    "MEAN_MOTION_DDOT": 0
   }
  },
  {
   "norad": 35951,
   "name": "DMSP 5D-3 F18 (USA 210)",
   "intl": "2009-057A",
   "group": "weather",
   "gcat": {
    "class": "D",
    "category": "MET",
    "owner": "AFSMC",
    "state": "US"
   },
   "omm": {
    "OBJECT_NAME": "DMSP 5D-3 F18 (USA 210)",
    "OBJECT_ID": "2009-057A",
    "EPOCH": "2026-06-30T22:20:09.118176",
    "MEAN_MOTION": 14.1490448,
    "ECCENTRICITY": 0.00103913,
    "INCLINATION": 98.9044,
    "RA_OF_ASC_NODE": 162.6703,
    "ARG_OF_PERICENTER": 206.8455,
    "MEAN_ANOMALY": 153.2182,
    "EPHEMERIS_TYPE": 0,
    "CLASSIFICATION_TYPE": "U",
    "NORAD_CAT_ID": 35951,
    "ELEMENT_SET_NO": 999,
    "REV_AT_EPOCH": 86153,
    "BSTAR": 0.00016131554,
    "MEAN_MOTION_DOT": 0.00000267,
    "MEAN_MOTION_DDOT": 0
   }
  }
 ]
}
